[{"OBJECT_NAME":"STARLINK-34488","OBJECT_ID":"2025-137L","EPOCH":"2026-03-09T22:17:50.782272","MEAN_MOTION":15.30219235,"ECCENTRICITY":0.00014202,"INCLINATION":53.1609,"RA_OF_ASC_NODE":333.9787,"ARG_OF_PERICENTER":120.7749,"MEAN_ANOMALY":239.3392,"EPHEMERIS_TYPE":0,"CLASSIFICATION_TYPE":"U","NORAD_CAT_ID":64604,"ELEMENT_SET_NO":999,"REV_AT_EPOCH":4077,"BSTAR":0.0011443771,"MEAN_MOTION_DOT":0.00033708,"MEAN_MOTION_DDOT":0},{"OBJECT_NAME":"OBJECT D","OBJECT_ID":"2021-102D","EPOCH":"2026-03-09T14:47:14.426880","MEAN_MOTION":15.2846442,"ECCENTRICITY":0.0009157,"INCLINATION":97.3342,"RA_OF_ASC_NODE":112.2633,"ARG_OF_PERICENTER":187.6206,"MEAN_ANOMALY":172.4897,"EPHEMERIS_TYPE":0,"CLASSIFICATION_TYPE":"U","NORAD_CAT_ID":49398,"ELEMENT_SET_NO":999,"REV_AT_EPOCH":23880,"BSTAR":0.00046011,"MEAN_MOTION_DOT":0.00012697,"MEAN_MOTION_DDOT":0}]
